ONEWEB-0045             
1 45151U 20008W   25345.16839565 -.00000409  00000+0 -11889-2 0  9991
2 45151  87.8882  58.4862 0001838 103.8861 256.2471 13.11414581285763
ONEWEB-0047             
1 45152U 20008X   25344.31702694  .00000730  00000+0  20541-2 0  9990
2 45152  87.8806  73.9193 0001713 108.6535 251.4779 13.10375736283462
ONEWEB-0048             
1 45153U 20008Y   25345.22834922  .00000356  00000+0  98416-3 0  9993
2 45153  87.8806  73.7648 0001586 100.1862 259.9444 13.10377971283199
ONEWEB-0049             
1 45154U 20008Z   25345.23148909  .00015232  00000+0  43585-1 0  9992
2 45154  87.8786  73.7520 0001424 129.4783 230.6471 13.10279765283416
ONEWEB-0051             
1 45155U 20008AA  25345.16669534 -.00000429  00000+0 -12468-2 0  9998
2 45155  87.8860  58.5082 0001965  98.6297 261.5054 13.11418208286445
ONEWEB-0052             
1 45156U 20008AB  25345.22584088  .00000238  00000+0  64598-3 0  9994
2 45156  87.8817  73.7144 0001535 122.8169 237.3106 13.10376148283325
ONEWEB-0053             
1 45157U 20008AC  25345.20839661 -.00000609  00000+0 -17809-2 0  9999
2 45157  87.8812  73.7646 0001976 105.0020 255.1326 13.10373777283299
ONEWEB-0054             
1 45158U 20008AD  25345.16692285  .00000616  00000+0  17283-2 0  9996
2 45158  87.8807  73.7441 0001612 105.9528 254.1777 13.10372807283401
